O3B MPOWER F1           
1 54755U 22174A   24183.81572900 -.00000019  00000+0  00000+0 0  9991
2 54755   0.0606 352.7311 0006732 105.6648  49.3138  5.00114150 29578
